[Satellite]
VERSION=1.1
NAME=MACSAT 2 (M 2)
NICKNAME=MACSAT 2 (M 2)
TLE1=1 20608U 90043B   11060.04368898  .00000145  00000-0  19073-4 0  2599
TLE2=2 20608  89.7303  61.6544 0091881 227.3993 131.9460 14.72148114114830
